STARLINK-1417
1 25693C 20035AN  21325.17534103  .00007631  00000-0  51142-3 0  3250
2 25693  53.0542 262.4496 0001959  69.0970 258.6476 15.06380967    10
